STARLINK-34261          
1 64764U 25147K   26068.70437428  .00023719  00000+0  81041-3 0  9991
2 64764  53.1576 242.7033 0000844  89.4363 270.6735 15.30200016 38791
2025-313BE              
1 67482U 25313BE  26068.69721505  .00077178  00000+0  26504-2 0  9996
2 67482  97.3989 145.3568 0007208 335.3714  24.7181 15.29801687  7972
